Site;Access Location;IP;Hostname;City;Region;Country;Latitude;Longitude;Company;Domain;Route;Type;Flag
Youtube;ITP;10.17.0.2;;;;;40.729444;-73.993554;Private;;;;
Youtube;ITP;128.122.1.36;NYUGWA-NEW-VL902.NET.NYU.EDU;New York;New York;US;40.7317;-73.9885;New York University;;;;
Youtube;ITP;192.168.184.228;;;;US;40.7317;-73.9885;Private;;;;
Youtube;ITP;128.122.254.114;NYUGWA-OUTSIDE-NGFW-VL3080.NET.NYU.EDU;New York;New York;US;40.7317;-73.9885;New York University;;;;
Youtube;ITP;192.168.184.221;;;;US;40.7317;-73.9885;Private;;;;
Youtube;ITP;192.76.177.202;NYUGWA-VL1001.NET.NYU.EDU;New York;New York;US;40.7317;-73.9885;New York University;;;;
Youtube;ITP;128.122.254.111;DMZGWB-PTP-NYUGWA-VL3082.NET.NYU.EDU;New York;New York;US;40.7317;-73.9885;New York University;;;;
Youtube;ITP;128.122.254.70;EXTGWB-PTP-DMZGWB.NET.NYU.EDU;New York;New York;US;40.7317;-73.9885;New York University;;;;
Youtube;ITP;64.86.62.13;ix-xe-7-3-2-0.tcore2.nw8-new-york.as6453.net;;;US;37.7510;-97.8220;TATA COMMUNICATIONS (AMERICA) INC;;;;
Youtube;ITP;209.58.75.217;if-ae-0-2.tcore1.nw8-new-york.as6453.net;Jersey City;New Jersey;US;40.7518;-74.0662;TATA COMMUNICATIONS (AMERICA) INC;;;;
Youtube;ITP;216.6.90.72;if-ae-3-2.tcore1.n0v-new-york.as6453.net;;;US;37.7510;-97.8220;TATA COMMUNICATIONS (AMERICA) INC;;;;
Youtube;ITP;63.243.128.141;if-ae-7-2.tcore1.nto-new-york.as6453.net;;;US;37.7510;-97.8220;TATA COMMUNICATIONS (AMERICA) INC;;;;
Youtube;ITP;63.243.128.25;if-ae-7-2.tcore1.nto-new-york.as6453.net;;;US;37.7510;-97.8220;TATA COMMUNICATIONS (AMERICA) INC;;;;
Youtube;ITP;63.243.128.141;if-ae-7-2.tcore1.nto-new-york.as6453.net;;;US;37.7510;-97.8220;TATA COMMUNICATIONS (AMERICA) INC;;;;
Youtube;ITP;63.243.128.122;if-ae-9-2.tcore1.n75-new-york.as6453.net;;;US;37.7510;-97.8220;TATA COMMUNICATIONS (AMERICA) INC;;;;
Youtube;ITP;72.14.195.232;72.14.195.232;;;US;37.7510;-97.8220;Google LLC;;;;
Youtube;ITP;108.170.248.97;108.170.248.97;;;US;37.7510;-97.8220;Google LLC;;;;
Youtube;ITP;108.170.248.33;108.170.248.33;;;US;37.7510;-97.8220;Google LLC;;;;
Youtube;ITP;108.170.248.97;108.170.248.97;;;US;37.7510;-97.8220;Google LLC;;;;
Youtube;ITP;216.239.42.167;216.239.42.167;Santa Clara;California;US;37.3501;-121.9850;Google LLC;;;;
Youtube;ITP;172.217.10.78;lga34s14-in-f14.1e100.net;;;US;37.7510;-97.8220;Google LLC;;;;
Netflix;ITP;10.17.0.2;;;;;40.729444;-73.993554;Private;;;;
Netflix;ITP;128.122.1.4;NYUGWA-NEW-VL902.NET.NYU.EDU;New York;New York;US;40.7317;-73.9885;New York University;;;;
Netflix;ITP;192.168.184.228;;;;US;40.7317;-73.9885;Private;;;;
Netflix;ITP;128.122.254.114;NYUGWA-OUTSIDE-NGFW-VL3080.NET.NYU.EDU;New York;New York;US;40.7317;-73.9885;New York University;;;;
Netflix;ITP;192.168.184.221;;;;US;40.7317;-73.9885;Private;;;;
Netflix;ITP;192.76.177.202;NYUGWA-VL1001.NET.NYU.EDU;New York;New York;US;40.7317;-73.9885;New York University;;;;
Netflix;ITP;128.122.254.109;DMZGWA-PTP-NYUGWA-VL3081.NET.NYU.EDU;New York;New York;US;40.7317;-73.9885;New York University;;;;
Netflix;ITP;128.122.254.64;EXTGWA-PTP-DMZGWA.NET.NYU.EDU;New York;New York;US;40.7317;-73.9885;New York University;;;;
Netflix;ITP;199.109.5.5;199.109.5.5;;;US;40.7317;-73.9885;NYSERNet;;;;
Netflix;ITP;199.109.5.2;I2-NEWY-nyc-9208.nysernet.net;;;US;40.7317;-73.9885;NYSERNet;;;;
Netflix;ITP;162.252.70.138;ae-3.4079.rtsw.wash.net.internet2.edu;;;US;40.7317;-73.9885;Internet2;;;;
Netflix;ITP;162.252.70.137;ae-1.4079.rtsw.ashb.net.internet2.edu;;;US;40.7317;-73.9885;Internet2;;;;
Netflix;ITP;162.252.70.75;ae-2.4079.rtsw2.ashb.net.internet2.edu;;;US;40.7317;-73.9885;Internet2;;;;
Netflix;ITP;64.57.30.3;64.57.30.3;;;US;40.7317;-73.9885;Internet2;;;;
Netflix;ITP;64.57.30.39;64.57.30.39;;;US;40.7317;-73.9885;Internet2;;;;
Netflix;ITP;64.57.30.3;64.57.30.3;;;US;40.7317;-73.9885;Internet2;;;;
Netflix;ITP;54.239.108.176;54.239.108.176;Ashburn;Virginia;US;39.0481;-77.4728;Amazon.com, Inc.;;;;
Netflix;ITP;54.239.108.210;54.239.108.210;Ashburn;Virginia;US;39.0481;-77.4728;Amazon.com, Inc.;;;;
Netflix;ITP;54.239.110.178;54.239.110.178;Ashburn;Virginia;US;39.0481;-77.4728;Amazon.com, Inc.;;;;
Netflix;ITP;54.239.110.170;54.239.110.170;Ashburn;Virginia;US;39.0481;-77.4728;Amazon.com, Inc.;;;;
Netflix;ITP;54.239.110.132;54.239.110.132;Ashburn;Virginia;US;39.0481;-77.4728;Amazon.com, Inc.;;;;
Netflix;ITP;54.239.110.133;54.239.110.133;Ashburn;Virginia;US;39.0481;-77.4728;Amazon.com, Inc.;;;;
Netflix;ITP;54.239.110.173;54.239.110.173;Ashburn;Virginia;US;39.0481;-77.4728;Amazon.com, Inc.;;;;
Netflix;ITP;54.239.110.163;54.239.110.163;Ashburn;Virginia;US;39.0481;-77.4728;Amazon.com, Inc.;;;;
Netflix;ITP;52.93.26.52;52.93.26.52;Seattle;Washington;US;47.6344;-122.3420;Amazon.com, Inc.;;;;
Netflix;ITP;54.239.109.13;54.239.109.13;Ashburn;Virginia;US;39.0481;-77.4728;Amazon.com, Inc.;;;;
Netflix;ITP;52.93.26.50;52.93.26.50;Seattle;Washington;US;47.6344;-122.3420;Amazon.com, Inc.;;;;
Netflix;ITP;52.93.24.92;52.93.24.92;Seattle;Washington;US;47.6344;-122.3420;Amazon.com, Inc.;;;;
Netflix;ITP;52.93.27.225;52.93.27.225;Seattle;Washington;US;47.6344;-122.3420;Amazon.com, Inc.;;;;
Netflix;ITP;52.93.24.56;52.93.24.56;Seattle;Washington;US;47.6344;-122.3420;Amazon.com, Inc.;;;;
Netflix;ITP;52.93.70.27;52.93.70.27;Seattle;Washington;US;47.6344;-122.3420;Amazon.com, Inc.;;;;
Netflix;ITP;72.21.220.47;72.21.220.47;Ashburn;Virginia;US;39.0481;-77.4728;Amazon.com, Inc.;;;;
Netflix;ITP;52.93.24.63;52.93.24.63;Seattle;Washington;US;47.6344;-122.3420;Amazon.com, Inc.;;;;
Netflix;ITP;35.169.83.64;ec2-35-169-83-64.compute-1.amazonaws.com;Ashburn;Virginia;US;39.0481;-77.4728;Amazon.com, Inc.;;;;Timeout
Hulu;ITP;10.17.0.2;;;;;40.729444;-73.993554;Private;;;;
Hulu;ITP;128.122.1.36;NYUGWA-NEW-VL902.NET.NYU.EDU;New York;New York;US;40.7317;-73.9885;New York University;;;;
Hulu;ITP;192.168.184.228;;;;US;40.7317;-73.9885;Private;;;;
Hulu;ITP;128.122.254.114;NYUGWA-OUTSIDE-NGFW-VL3080.NET.NYU.EDU;New York;New York;US;40.7317;-73.9885;New York University;;;;
Hulu;ITP;192.168.184.221;;;;US;40.7317;-73.9885;Private;;;;
Hulu;ITP;192.76.177.202;NYUGWA-VL1001.NET.NYU.EDU;New York;New York;US;40.7317;-73.9885;New York University;;;;
Hulu;ITP;128.122.254.111;DMZGWB-PTP-NYUGWA-VL3082.NET.NYU.EDU;New York;New York;US;40.7317;-73.9885;New York University;;;;
Hulu;ITP;128.122.254.70;EXTGWB-PTP-DMZGWB.NET.NYU.EDU;New York;New York;US;40.7317;-73.9885;New York University;;;;
Hulu;ITP;64.86.62.13;ix-xe-7-3-2-0.tcore2.nw8-new-york.as6453.net;;;US;37.7510;-97.8220;TATA COMMUNICATIONS (AMERICA) INC;;;;
Hulu;ITP;209.58.75.217;if-ae-0-2.tcore1.nw8-new-york.as6453.net;Jersey City;New Jersey;US;40.7518;-74.0662;TATA COMMUNICATIONS (AMERICA) INC;;;;
Hulu;ITP;216.6.90.72;if-ae-3-2.tcore1.n0v-new-york.as6453.net;;;US;37.7510;-97.8220;TATA COMMUNICATIONS (AMERICA) INC;;;;
Hulu;ITP;63.243.128.141;if-ae-7-2.tcore1.nto-new-york.as6453.net;;;US;37.7510;-97.8220;TATA COMMUNICATIONS (AMERICA) INC;;;;
Hulu;ITP;63.243.128.25;if-ae-7-2.tcore1.nto-new-york.as6453.net;;;US;37.7510;-97.8220;TATA COMMUNICATIONS (AMERICA) INC;;;;
Hulu;ITP;63.243.128.122;if-ae-9-2.tcore1.n75-new-york.as6453.net;;;US;37.7510;-97.8220;TATA COMMUNICATIONS (AMERICA) INC;;;;
Hulu;ITP;129.250.9.113;ae-8.a01.nycmny01.us.bb.gin.ntt.net;Greenwood Village;Colorado;US;39.6172;-104.9510;NTT America, Inc.;;;;
Hulu;ITP;23.206.165.192;a23-206-165-192.deploy.static.akamaitechnologies.com;;;US;37.7510;-97.8220;NTT America, Inc.;;;;Timeout
Vimeo;ITP;10.17.0.2;;;;;40.729444;-73.993554;Private;;;;
Vimeo;ITP;128.122.1.36;NYUGWA-NEW-VL902.NET.NYU.EDU;New York;New York;US;40.7317;-73.9885;New York University;;;;
Vimeo;ITP;192.168.184.228;;;;US;40.7317;-73.9885;Private;;;;
Vimeo;ITP;128.122.254.114;NYUGWA-OUTSIDE-NGFW-VL3080.NET.NYU.EDU;New York;New York;US;40.7317;-73.9885;New York University;;;;
Vimeo;ITP;192.168.184.221;;;;US;40.7317;-73.9885;Private;;;;
Vimeo;ITP;192.76.177.202;NYUGWA-VL1001.NET.NYU.EDU;New York;New York;US;40.7317;-73.9885;New York University;;;;
Vimeo;ITP;128.122.254.111;DMZGWB-PTP-NYUGWA-VL3082.NET.NYU.EDU;New York;New York;US;40.7317;-73.9885;New York University;;;;
Vimeo;ITP;128.122.254.74;EXTGWC-PTP-DMZGWB.NET.NYU.EDU;New York;New York;US;40.7317;-73.9885;New York University;;;;
Vimeo;ITP;4.28.130.117;6-1-30.ear3.NewYork1.Level3.net;New York;New York;US;40.7805;-73.9512;Level 3 Parent, LLC;;;;
Vimeo;ITP;151.101.64.217;151.101.64.217;;;;37.7510;-97.8220;Fastly;;;;Timeout